[
  {
    "OBJECT_NAME": "GAOFEN-3",
    "OBJECT_ID": "2016-049A",
    "EPOCH": "2025-05-04T04:03:43.562880",
    "MEAN_MOTION": 14.421485,
    "ECCENTRICITY": 8.84e-05,
    "INCLINATION": 98.4044,
    "RA_OF_ASC_NODE": 133.0781,
    "ARG_OF_PERICENTER": 77.7603,
    "MEAN_ANOMALY": 282.3686,
    "EPHEMERIS_TYPE": 0,
    "CLASSIFICATION_TYPE": "U",
    "NORAD_CAT_ID": 41727,
    "ELEMENT_SET_NO": 999,
    "REV_AT_EPOCH": 45968,
    "BSTAR": 5.419e-05,
    "MEAN_MOTION_DOT": 1.35e-06,
    "MEAN_MOTION_DDOT": 0
  },
  {
    "OBJECT_NAME": "SKYSAT-C4",
    "OBJECT_ID": "2016-058B",
    "EPOCH": "2025-05-04T02:38:00.093120",
    "MEAN_MOTION": 15.358788,
    "ECCENTRICITY": 9.5e-05,
    "INCLINATION": 96.9601,
    "RA_OF_ASC_NODE": 160.8655,
    "ARG_OF_PERICENTER": 47.3566,
    "MEAN_ANOMALY": 312.7759,
    "EPHEMERIS_TYPE": 0,
    "CLASSIFICATION_TYPE": "U",
    "NORAD_CAT_ID": 41771,
    "ELEMENT_SET_NO": 999,
    "REV_AT_EPOCH": 48244,
    "BSTAR": 0.00042997,
    "MEAN_MOTION_DOT": 0.0001495,
    "MEAN_MOTION_DDOT": 0
  },
  {
    "OBJECT_NAME": "SKYSAT-C5",
    "OBJECT_ID": "2016-058C",
    "EPOCH": "2025-05-04T02:09:03.655296",
    "MEAN_MOTION": 15.36282742,
    "ECCENTRICITY": 0.0009088,
    "INCLINATION": 97.1039,
    "RA_OF_ASC_NODE": 175.9341,
    "ARG_OF_PERICENTER": 154.6033,
    "MEAN_ANOMALY": 205.566,
    "EPHEMERIS_TYPE": 0,
    "CLASSIFICATION_TYPE": "U",
    "NORAD_CAT_ID": 41772,
    "ELEMENT_SET_NO": 999,
    "REV_AT_EPOCH": 48098,
    "BSTAR": 0.00042229,
    "MEAN_MOTION_DOT": 0.0001489,
    "MEAN_MOTION_DDOT": 0
  },
  {
    "OBJECT_NAME": "SKYSAT-C2",
    "OBJECT_ID": "2016-058D",
    "EPOCH": "2025-05-03T19:54:15.560064",
    "MEAN_MOTION": 15.32090462,
    "ECCENTRICITY": 0.0006099,
    "INCLINATION": 97.0574,
    "RA_OF_ASC_NODE": 158.3528,
    "ARG_OF_PERICENTER": 92.2562,
    "MEAN_ANOMALY": 267.9379,
    "EPHEMERIS_TYPE": 0,
    "CLASSIFICATION_TYPE": "U",
    "NORAD_CAT_ID": 41773,
    "ELEMENT_SET_NO": 999,
    "REV_AT_EPOCH": 48218,
    "BSTAR": 0.00042198,
    "MEAN_MOTION_DOT": 0.00013016,
    "MEAN_MOTION_DDOT": 0
  },
  {
    "OBJECT_NAME": "SKYSAT-C3",
    "OBJECT_ID": "2016-058E",
    "EPOCH": "2025-05-04T02:17:56.465952",
    "MEAN_MOTION": 15.36921105,
    "ECCENTRICITY": 0.0001295,
    "INCLINATION": 96.9573,
    "RA_OF_ASC_NODE": 169.1117,
    "ARG_OF_PERICENTER": 93.2371,
    "MEAN_ANOMALY": 266.9022,
    "EPHEMERIS_TYPE": 0,
    "CLASSIFICATION_TYPE": "U",
    "NORAD_CAT_ID": 41774,
    "ELEMENT_SET_NO": 999,
    "REV_AT_EPOCH": 48299,
    "BSTAR": 0.00035663,
    "MEAN_MOTION_DOT": 0.00012807,
    "MEAN_MOTION_DDOT": 0
  },
  {
    "OBJECT_NAME": "ALSAT 1B",
    "OBJECT_ID": "2016-059C",
    "EPOCH": "2025-05-04T04:06:38.402784",
    "MEAN_MOTION": 14.71795238,
    "ECCENTRICITY": 0.0010903,
    "INCLINATION": 97.7911,
    "RA_OF_ASC_NODE": 145.4177,
    "ARG_OF_PERICENTER": 99.7696,
    "MEAN_ANOMALY": 260.4744,
    "EPHEMERIS_TYPE": 0,
    "CLASSIFICATION_TYPE": "U",
    "NORAD_CAT_ID": 41785,
    "ELEMENT_SET_NO": 999,
    "REV_AT_EPOCH": 46040,
    "BSTAR": 0.00012825,
    "MEAN_MOTION_DOT": 7.55e-06,
    "MEAN_MOTION_DDOT": 0
  },
  {
    "OBJECT_NAME": "PATHFINDER 1",
    "OBJECT_ID": "2016-059E",
    "EPOCH": "2025-05-04T00:49:54.832224",
    "MEAN_MOTION": 14.66860546,
    "ECCENTRICITY": 0.0030319,
    "INCLINATION": 97.8148,
    "RA_OF_ASC_NODE": 137.1607,
    "ARG_OF_PERICENTER": 71.4537,
    "MEAN_ANOMALY": 288.9958,
    "EPHEMERIS_TYPE": 0,
    "CLASSIFICATION_TYPE": "U",
    "NORAD_CAT_ID": 41787,
    "ELEMENT_SET_NO": 999,
    "REV_AT_EPOCH": 45971,
    "BSTAR": 0.00024677,
    "MEAN_MOTION_DOT": 1.341e-05,
    "MEAN_MOTION_DDOT": 0
  },
  {
    "OBJECT_NAME": "SCATSAT 1",
    "OBJECT_ID": "2016-059H",
    "EPOCH": "2025-05-04T04:41:46.276800",
    "MEAN_MOTION": 14.7809291,
    "ECCENTRICITY": 0.005744,
    "INCLINATION": 98.1719,
    "RA_OF_ASC_NODE": 177.8142,
    "ARG_OF_PERICENTER": 123.5223,
    "MEAN_ANOMALY": 237.1493,
    "EPHEMERIS_TYPE": 0,
    "CLASSIFICATION_TYPE": "U",
    "NORAD_CAT_ID": 41790,
    "ELEMENT_SET_NO": 999,
    "REV_AT_EPOCH": 45645,
    "BSTAR": 0.0003657,
    "MEAN_MOTION_DOT": 2.662e-05,
    "MEAN_MOTION_DDOT": 0
  },
  {
    "OBJECT_NAME": "GOKTURK 1A",
    "OBJECT_ID": "2016-073A",
    "EPOCH": "2025-05-04T04:34:26.218272",
    "MEAN_MOTION": 14.62775016,
    "ECCENTRICITY": 0.0001421,
    "INCLINATION": 98.1176,
    "RA_OF_ASC_NODE": 19.8286,
    "ARG_OF_PERICENTER": 84.5908,
    "MEAN_ANOMALY": 275.5455,
    "EPHEMERIS_TYPE": 0,
    "CLASSIFICATION_TYPE": "U",
    "NORAD_CAT_ID": 41875,
    "ELEMENT_SET_NO": 999,
    "REV_AT_EPOCH": 44903,
    "BSTAR": 0.00016382,
    "MEAN_MOTION_DOT": 7.89e-06,
    "MEAN_MOTION_DDOT": 0
  },
  {
    "OBJECT_NAME": "RESOURCESAT-2A",
    "OBJECT_ID": "2016-074A",
    "EPOCH": "2025-05-04T03:36:14.098752",
    "MEAN_MOTION": 14.21689009,
    "ECCENTRICITY": 0.0002154,
    "INCLINATION": 98.6066,
    "RA_OF_ASC_NODE": 196.5059,
    "ARG_OF_PERICENTER": 114.5194,
    "MEAN_ANOMALY": 245.6209,
    "EPHEMERIS_TYPE": 0,
    "CLASSIFICATION_TYPE": "U",
    "NORAD_CAT_ID": 41877,
    "ELEMENT_SET_NO": 999,
    "REV_AT_EPOCH": 43619,
    "BSTAR": 0.0001441,
    "MEAN_MOTION_DOT": 2.74e-06,
    "MEAN_MOTION_DDOT": 0
  },
  {
    "OBJECT_NAME": "CARTOSAT-2D",
    "OBJECT_ID": "2017-008A",
    "EPOCH": "2025-05-04T03:27:04.117824",
    "MEAN_MOTION": 15.19300184,
    "ECCENTRICITY": 0.0005309,
    "INCLINATION": 97.4638,
    "RA_OF_ASC_NODE": 184.5742,
    "ARG_OF_PERICENTER": 212.7391,
    "MEAN_ANOMALY": 147.3515,
    "EPHEMERIS_TYPE": 0,
    "CLASSIFICATION_TYPE": "U",
    "NORAD_CAT_ID": 41948,
    "ELEMENT_SET_NO": 999,
    "REV_AT_EPOCH": 45547,
    "BSTAR": 0.00032836,
    "MEAN_MOTION_DOT": 6.866e-05,
    "MEAN_MOTION_DDOT": 0
  },
  {
    "OBJECT_NAME": "SENTINEL-2B",
    "OBJECT_ID": "2017-013A",
    "EPOCH": "2025-05-04T04:28:38.419392",
    "MEAN_MOTION": 14.30817952,
    "ECCENTRICITY": 0.0001262,
    "INCLINATION": 98.5642,
    "RA_OF_ASC_NODE": 199.8363,
    "ARG_OF_PERICENTER": 91.0341,
    "MEAN_ANOMALY": 269.0986,
    "EPHEMERIS_TYPE": 0,
    "CLASSIFICATION_TYPE": "U",
    "NORAD_CAT_ID": 42063,
    "ELEMENT_SET_NO": 999,
    "REV_AT_EPOCH": 42616,
    "BSTAR": 0.0001107,
    "MEAN_MOTION_DOT": 2.47e-06,
    "MEAN_MOTION_DDOT": 0
  },
  {
    "OBJECT_NAME": "ZHUHAI-1 02 (CAS-4B)",
    "OBJECT_ID": "2017-034B",
    "EPOCH": "2025-05-04T04:33:22.238208",
    "MEAN_MOTION": 15.58824828,
    "ECCENTRICITY": 0.0018582,
    "INCLINATION": 43.0072,
    "RA_OF_ASC_NODE": 178.0398,
    "ARG_OF_PERICENTER": 32.9326,
    "MEAN_ANOMALY": 327.2691,
    "EPHEMERIS_TYPE": 0,
    "CLASSIFICATION_TYPE": "U",
    "NORAD_CAT_ID": 42759,
    "ELEMENT_SET_NO": 999,
    "REV_AT_EPOCH": 43691,
    "BSTAR": 0.00082022,
    "MEAN_MOTION_DOT": 0.00065821,
    "MEAN_MOTION_DDOT": 0
  },
  {
    "OBJECT_NAME": "NUSAT-3 (MILANESAT)",
    "OBJECT_ID": "2017-034C",
    "EPOCH": "2025-05-04T04:00:31.080960",
    "MEAN_MOTION": 15.7808874,
    "ECCENTRICITY": 0.0020568,
    "INCLINATION": 42.9927,
    "RA_OF_ASC_NODE": 144.1857,
    "ARG_OF_PERICENTER": 77.311,
    "MEAN_ANOMALY": 283.0058,
    "EPHEMERIS_TYPE": 0,
    "CLASSIFICATION_TYPE": "U",
    "NORAD_CAT_ID": 42760,
    "ELEMENT_SET_NO": 999,
    "REV_AT_EPOCH": 43731,
    "BSTAR": 0.0010673,
    "MEAN_MOTION_DOT": 0.00194077,
    "MEAN_MOTION_DDOT": 0
  }
]