GAOFEN-3                
1 41727U 16049A   25124.16925420  .00000135  00000+0  54190-4 0  9995
2 41727  98.4044 133.0781 0000884  77.7603 282.3686 14.42148500459681
SKYSAT-C4               
1 41771U 16058B   25124.10972330  .00014950  00000+0  42997-3 0  9991
2 41771  96.9601 160.8655 0000950  47.3566 312.7759 15.35878800482440
SKYSAT-C5               
1 41772U 16058C   25124.08962564  .00014890  00000+0  42229-3 0  9998
2 41772  97.1039 175.9341 0009088 154.6033 205.5660 15.36282742480982
SKYSAT-C2               
1 41773U 16058D   25123.82934676  .00013016  00000+0  42198-3 0  9997
2 41773  97.0574 158.3528 0006099  92.2562 267.9379 15.32090462482186
SKYSAT-C3               
1 41774U 16058E   25124.09579243  .00012807  00000+0  35663-3 0  9999
2 41774  96.9573 169.1117 0001295  93.2371 266.9022 15.36921105482994
ALSAT 1B                
1 41785U 16059C   25124.17127781  .00000755  00000+0  12825-3 0  9991
2 41785  97.7911 145.4177 0010903  99.7696 260.4744 14.71795238460407
PATHFINDER 1            
1 41787U 16059E   25124.03466241  .00001341  00000+0  24677-3 0  9995
2 41787  97.8148 137.1607 0030319  71.4537 288.9958 14.66860546459715
SCATSAT 1               
1 41790U 16059H   25124.19567450  .00002662  00000+0  36570-3 0  9992
2 41790  98.1719 177.8142 0057440 123.5223 237.1493 14.78092910456450
GOKTURK 1A              
1 41875U 16073A   25124.19058123  .00000789  00000+0  16382-3 0  9991
2 41875  98.1176  19.8286 0001421  84.5908 275.5455 14.62775016449037
RESOURCESAT-2A          
1 41877U 16074A   25124.15016318  .00000274  00000+0  14410-3 0  9999
2 41877  98.6066 196.5059 0002154 114.5194 245.6209 14.21689009436197
CARTOSAT-2D             
1 41948U 17008A   25124.14379766  .00006866  00000+0  32836-3 0  9999
2 41948  97.4638 184.5742 0005309 212.7391 147.3515 15.19300184455471
SENTINEL-2B             
1 42063U 17013A   25124.18655578  .00000247  00000+0  11070-3 0  9990
2 42063  98.5642 199.8363 0001262  91.0341 269.0986 14.30817952426168
ZHUHAI-1 02 (CAS-4B)    
1 42759U 17034B   25124.18984072  .00065821  00000+0  82022-3 0  9993
2 42759  43.0072 178.0398 0018582  32.9326 327.2691 15.58824828436914
NUSAT-3 (MILANESAT)     
1 42760U 17034C   25124.16702640  .00194077  00000+0  10673-2 0  9990
2 42760  42.9927 144.1857 0020568  77.3110 283.0058 15.78088740437316
